SBSS (USA 216)          
1 37168U 10048A   26068.88624904  .00004946  00000+0  24191-3 0  9993
2 37168  97.7474 312.3885 0082264 184.8326 306.5835 15.15724210837421
STRIX-4                 
1 60352U 24137A   26068.65404516  .00020530  00000+0  71820-3 0  9996
2 60352  43.0134 129.8162 0016840   5.2738 354.8289 15.29026223 88766
